GOES 1 (SMS-C) [-]      
1 08366U 75100A   17295.09413928 -.00000209  00000-0  00000+0 0  9997
2 08366  11.8432 316.9925 0006685 282.7098  96.8688  1.00240431153526
GOES 2 [-]              
1 10061U 77048A   17295.27585803 -.00000082  00000-0  00000+0 0  9996
2 10061  13.1028 326.1270 0017552 317.2391 220.2957  0.99399898 92105
GOES 3 [-]              
1 10953U 78062A   17294.94315050 -.00000144  00000-0  00000+0 0  9990
2 10953  13.2607 329.7435 0004461 288.9191 210.4855  0.99358686 97190
GOES 4 [-]              
1 11964U 80074A   17295.26977002  .00000029  00000-0  00000+0 0  9997
2 11964  14.0473 333.4729 0031800  12.0045  29.3437  0.99227387 96276
GOES 5 [-]              
1 12472U 81049A   17295.10916875 -.00000256  00000-0  00000+0 0  9992
2 12472  14.2646 343.7016 0006430 255.8011 111.6359  1.00224714 91276
GOES 6 [-]              
1 14050U 83041A   17295.10574012 -.00000240  00000-0  00000+0 0  9996
2 14050  14.5090 348.5858 0003981 237.1109 120.2276  1.00236447184376
GOES 7 [-]              
1 17561U 87022A   17293.85139878 -.00000031  00000-0  00000+0 0  9994
2 17561  15.1447   4.4957 0005910 286.2530  55.2989  0.99905719 95397
GOES 8 [-]              
1 23051U 94022A   17294.76993785 -.00000025  00000-0  00000+0 0  9992
2 23051  11.5441  37.7048 0009133 230.7345 128.1790  0.98902758 92869
GOES 9 [-]              
1 23581U 95025A   17295.28686625 -.00000052  00000-0  00000+0 0  9994
2 23581  11.0425  37.1947 0003567 166.6534 204.5348  0.98798698 81534
GOES 10 [-]             
1 24786U 97019A   17294.67245524 -.00000285  00000-0  00000+0 0  9996
2 24786   9.4363  42.0149 0031203 168.8800 191.1427  0.99124910 74735
GOES 11 [-]             
1 26352U 00022A   17294.78550135 -.00000264  00000-0  00000+0 0  9991
2 26352   5.2071  72.7594 0007054 163.1072 206.6722  0.99043968 63692
GOES 12 [-]             
1 26871U 01031A   17295.34037612 -.00000167  00000-0  00000+0 0  9993
2 26871   6.5578  59.0627 0010726 224.3229  49.1112  0.99140776 59405
GOES 13 [+]             
1 29155U 06018A   17295.12156156 -.00000262  00000-0  00000+0 0  9998
2 29155   0.1167 105.7383 0002027   0.0095 254.3025  1.00272849 41831
GOES 14 [S]             
1 35491U 09033A   17295.20399141 -.00000104  00000-0  00000+0 0  9995
2 35491   0.2805 274.7749 0010533 309.4927 135.6762  1.00272861 30476
GOES 15 [+]             
1 36411U 10008A   17295.28950418  .00000077  00000-0  00000+0 0  9998
2 36411   0.2550 274.6139 0004582 277.4558 167.9475  1.00280299 28008
GOES 16 [S]             
1 41866U 16071A   17295.16249698 -.00000194  00000-0  00000+0 0  9993
2 41866   0.0085 347.0143 0000850 284.1820  88.8220  1.00272288  3427
